{
 "generated_at": "2026-07-15T07:14:44Z",
 "sources": [
  {
   "name": "CelesTrak",
   "url": "https://celestrak.org/NORAD/elements/",
   "license": "frei verfügbar; Attribution. Ursprünglich USSPACECOM/Space-Track."
  },
  {
   "name": "GCAT (J. McDowell, planet4589.org)",
   "url": "https://planet4589.org/space/gcat/",
   "license": "CC-BY 4.0"
  }
 ],
 "satellites": [
  {
   "norad": 32376,
   "name": "COSMO-SKYMED 2",
   "intl": "2007-059A",
   "group": "resource",
   "gcat": {
    "class": "D",
    "category": "IMG-R",
    "owner": "ASI",
    "state": "I"
   },
   "omm": {
    "OBJECT_NAME": "COSMO-SKYMED 2",
    "OBJECT_ID": "2007-059A",
    "EPOCH": "2026-07-14T23:24:33.065280",
    "MEAN_MOTION": 14.82150393,
    "ECCENTRICITY": 0.00014427,
    "INCLINATION": 97.8894,
    "RA_OF_ASC_NODE": 19.1712,
    "ARG_OF_PERICENTER": 94.0628,
    "MEAN_ANOMALY": 266.075,
    "EPHEMERIS_TYPE": 0,
    "CLASSIFICATION_TYPE": "U",
    "NORAD_CAT_ID": 32376,
    "ELEMENT_SET_NO": 999,
    "REV_AT_EPOCH": 612,
    "BSTAR": 0.000027187396,
    "MEAN_MOTION_DOT": 0.00000164,
    "MEAN_MOTION_DDOT": 0
   }
  },
  {
   "norad": 33412,
   "name": "COSMO-SKYMED 3",
   "intl": "2008-054A",
   "group": "resource",
   "gcat": {
    "class": null,
    "category": null,
    "owner": null,
    "state": null
   },
   "omm": {
    "OBJECT_NAME": "COSMO-SKYMED 3",
    "OBJECT_ID": "2008-054A",
    "EPOCH": "2026-07-14T23:07:26.656608",
    "MEAN_MOTION": 15.07113003,
    "ECCENTRICITY": 0.00157596,
    "INCLINATION": 97.8247,
    "RA_OF_ASC_NODE": 54.994,
    "ARG_OF_PERICENTER": 167.3382,
    "MEAN_ANOMALY": 192.8244,
    "EPHEMERIS_TYPE": 0,
    "CLASSIFICATION_TYPE": "U",
    "NORAD_CAT_ID": 33412,
    "ELEMENT_SET_NO": 999,
    "REV_AT_EPOCH": 96112,
    "BSTAR": 0.0001603277,
    "MEAN_MOTION_DOT": 0.00002348,
    "MEAN_MOTION_DDOT": 0
   }
  },
  {
   "norad": 37216,
   "name": "COSMO-SKYMED 4",
   "intl": "2010-060A",
   "group": "resource",
   "gcat": {
    "class": "D",
    "category": "IMG-R",
    "owner": "ASI",
    "state": "I"
   },
   "omm": {
    "OBJECT_NAME": "COSMO-SKYMED 4",
    "OBJECT_ID": "2010-060A",
    "EPOCH": "2026-07-14T23:42:47.216736",
    "MEAN_MOTION": 14.82148314,
    "ECCENTRICITY": 0.00014695,
    "INCLINATION": 97.8885,
    "RA_OF_ASC_NODE": 19.1856,
    "ARG_OF_PERICENTER": 85.9027,
    "MEAN_ANOMALY": 274.2354,
    "EPHEMERIS_TYPE": 0,
    "CLASSIFICATION_TYPE": "U",
    "NORAD_CAT_ID": 37216,
    "ELEMENT_SET_NO": 999,
    "REV_AT_EPOCH": 84868,
    "BSTAR": 0.000034042039,
    "MEAN_MOTION_DOT": 0.00000219,
    "MEAN_MOTION_DDOT": 0
   }
  },
  {
   "norad": 44873,
   "name": "CSG-1",
   "intl": "2019-092A",
   "group": "resource",
   "gcat": {
    "class": "D",
    "category": "IMG-R",
    "owner": "MDDI/ASI",
    "state": "I"
   },
   "omm": {
    "OBJECT_NAME": "CSG-1",
    "OBJECT_ID": "2019-092A",
    "EPOCH": "2026-07-14T22:23:50.136288",
    "MEAN_MOTION": 14.82156618,
    "ECCENTRICITY": 0.00015006,
    "INCLINATION": 97.8896,
    "RA_OF_ASC_NODE": 19.1349,
    "ARG_OF_PERICENTER": 90.0467,
    "MEAN_ANOMALY": 270.0918,
    "EPHEMERIS_TYPE": 0,
    "CLASSIFICATION_TYPE": "U",
    "NORAD_CAT_ID": 44873,
    "ELEMENT_SET_NO": 999,
    "REV_AT_EPOCH": 35558,
    "BSTAR": 0.000025400211,
    "MEAN_MOTION_DOT": 0.0000015,
    "MEAN_MOTION_DDOT": 0
   }
  },
  {
   "norad": 51444,
   "name": "CSG-2",
   "intl": "2022-008A",
   "group": "resource",
   "gcat": {
    "class": "D",
    "category": "IMG-R",
    "owner": "MDDI/ASI",
    "state": "I"
   },
   "omm": {
    "OBJECT_NAME": "CSG-2",
    "OBJECT_ID": "2022-008A",
    "EPOCH": "2026-07-14T23:12:23.999616",
    "MEAN_MOTION": 14.82150749,
    "ECCENTRICITY": 0.00015426,
    "INCLINATION": 97.8885,
    "RA_OF_ASC_NODE": 19.1624,
    "ARG_OF_PERICENTER": 84.5128,
    "MEAN_ANOMALY": 275.6261,
    "EPHEMERIS_TYPE": 0,
    "CLASSIFICATION_TYPE": "U",
    "NORAD_CAT_ID": 51444,
    "ELEMENT_SET_NO": 999,
    "REV_AT_EPOCH": 24070,
    "BSTAR": 0.000028489375,
    "MEAN_MOTION_DOT": 0.00000175,
    "MEAN_MOTION_DDOT": 0
   }
  },
  {
   "norad": 67304,
   "name": "CSG-3",
   "intl": "2026-001A",
   "group": "resource",
   "gcat": {
    "class": "D",
    "category": "IMG-R",
    "owner": "MDDI/ASI",
    "state": "I"
   },
   "omm": {
    "OBJECT_NAME": "CSG-3",
    "OBJECT_ID": "2026-001A",
    "EPOCH": "2026-07-13T12:40:32.844288",
    "MEAN_MOTION": 14.82151371,
    "ECCENTRICITY": 0.00015181,
    "INCLINATION": 97.8894,
    "RA_OF_ASC_NODE": 17.7492,
    "ARG_OF_PERICENTER": 93.3222,
    "MEAN_ANOMALY": 266.8165,
    "EPHEMERIS_TYPE": 0,
    "CLASSIFICATION_TYPE": "U",
    "NORAD_CAT_ID": 67304,
    "ELEMENT_SET_NO": 999,
    "REV_AT_EPOCH": 2836,
    "BSTAR": 0.00002348529,
    "MEAN_MOTION_DOT": 0.00000135,
    "MEAN_MOTION_DDOT": 0
   }
  },
  {
   "norad": 41887,
   "name": "CYGFM01",
   "intl": "2016-078D",
   "group": "weather",
   "gcat": {
    "class": "C",
    "category": "EOSCI",
    "owner": "LARCN/SWRIB",
    "state": "US"
   },
   "omm": {
    "OBJECT_NAME": "CYGFM01",
    "OBJECT_ID": "2016-078D",
    "EPOCH": "2026-07-14T20:23:24.229536",
    "MEAN_MOTION": 15.58562392,
    "ECCENTRICITY": 0.00059951,
    "INCLINATION": 34.9399,
    "RA_OF_ASC_NODE": 78.0725,
    "ARG_OF_PERICENTER": 26.3896,
    "MEAN_ANOMALY": 333.7134,
    "EPHEMERIS_TYPE": 0,
    "CLASSIFICATION_TYPE": "U",
    "NORAD_CAT_ID": 41887,
    "ELEMENT_SET_NO": 999,
    "REV_AT_EPOCH": 53302,
    "BSTAR": 0.00020298285,
    "MEAN_MOTION_DOT": 0.00016056,
    "MEAN_MOTION_DDOT": 0
   }
  },
  {
   "norad": 41886,
   "name": "CYGFM02",
   "intl": "2016-078C",
   "group": "weather",
   "gcat": {
    "class": "C",
    "category": "EOSCI",
    "owner": "LARCN/SWRIB",
    "state": "US"
   },
   "omm": {
    "OBJECT_NAME": "CYGFM02",
    "OBJECT_ID": "2016-078C",
    "EPOCH": "2026-07-14T21:23:35.340000",
    "MEAN_MOTION": 15.66343464,
    "ECCENTRICITY": 0.00049461,
    "INCLINATION": 34.9406,
    "RA_OF_ASC_NODE": 36.9016,
    "ARG_OF_PERICENTER": 84.915,
    "MEAN_ANOMALY": 275.2142,
    "EPHEMERIS_TYPE": 0,
    "CLASSIFICATION_TYPE": "U",
    "NORAD_CAT_ID": 41886,
    "ELEMENT_SET_NO": 999,
    "REV_AT_EPOCH": 53351,
    "BSTAR": 0.00023300906,
    "MEAN_MOTION_DOT": 0.00025041,
    "MEAN_MOTION_DDOT": 0
   }
  },
  {
   "norad": 41891,
   "name": "CYGFM03",
   "intl": "2016-078H",
   "group": "weather",
   "gcat": {
    "class": "C",
    "category": "EOSCI",
    "owner": "LARCN/SWRIB",
    "state": "US"
   },
   "omm": {
    "OBJECT_NAME": "CYGFM03",
    "OBJECT_ID": "2016-078H",
    "EPOCH": "2026-07-14T22:39:35.512128",
    "MEAN_MOTION": 15.61541865,
    "ECCENTRICITY": 0.00045364,
    "INCLINATION": 34.9403,
    "RA_OF_ASC_NODE": 46.5105,
    "ARG_OF_PERICENTER": 63.978,
    "MEAN_ANOMALY": 296.1413,
    "EPHEMERIS_TYPE": 0,
    "CLASSIFICATION_TYPE": "U",
    "NORAD_CAT_ID": 41891,
    "ELEMENT_SET_NO": 999,
    "REV_AT_EPOCH": 53331,
    "BSTAR": 0.0002212137,
    "MEAN_MOTION_DOT": 0.00019629,
    "MEAN_MOTION_DDOT": 0
   }
  },
  {
   "norad": 41885,
   "name": "CYGFM04",
   "intl": "2016-078B",
   "group": "weather",
   "gcat": {
    "class": "C",
    "category": "EOSCI",
    "owner": "LARCN/SWRIB",
    "state": "US"
   },
   "omm": {
    "OBJECT_NAME": "CYGFM04",
    "OBJECT_ID": "2016-078B",
    "EPOCH": "2026-07-14T19:38:40.939296",
    "MEAN_MOTION": 15.63063348,
    "ECCENTRICITY": 0.00042293,
    "INCLINATION": 34.9324,
    "RA_OF_ASC_NODE": 43.702,
    "ARG_OF_PERICENTER": 79.7565,
    "MEAN_ANOMALY": 280.3638,
    "EPHEMERIS_TYPE": 0,
    "CLASSIFICATION_TYPE": "U",
    "NORAD_CAT_ID": 41885,
    "ELEMENT_SET_NO": 999,
    "REV_AT_EPOCH": 53332,
    "BSTAR": 0.00022188039,
    "MEAN_MOTION_DOT": 0.000209,
    "MEAN_MOTION_DDOT": 0
   }
  }
 ]
}
