COSMO-SKYMED 2          
1 32376U 07059A   26195.97538270  .00000164  00000+0  27187-4 0  9995
2 32376  97.8894  19.1712 0001442  94.0628 266.0750 14.82150393  6120
COSMO-SKYMED 3          
1 33412U 08054A   26195.96350297  .00002348  00000+0  16033-3 0  9996
2 33412  97.8247  54.9940 0015759 167.3382 192.8244 15.07113003961120
COSMO-SKYMED 4          
1 37216U 10060A   26195.98804649  .00000219  00000+0  34042-4 0  9995
2 37216  97.8885  19.1856 0001469  85.9027 274.2354 14.82148314848684
CYGFM04                 
1 41885U 16078B   26195.81852939  .00020900  00000+0  22188-3 0  9990
2 41885  34.9324  43.7020 0004229  79.7565 280.3638 15.63063348533320
CYGFM02                 
1 41886U 16078C   26195.89138125  .00025041  00000+0  23301-3 0  9992
2 41886  34.9406  36.9016 0004946  84.9150 275.2142 15.66343464533512
CYGFM01                 
1 41887U 16078D   26195.84958599  .00016056  00000+0  20298-3 0  9991
2 41887  34.9399  78.0725 0005995  26.3896 333.7134 15.58562392533021
CYGFM03                 
1 41891U 16078H   26195.94416102  .00019629  00000+0  22121-3 0  9992
2 41891  34.9403  46.5105 0004536  63.9780 296.1413 15.61541865533313
CSG-1                   
1 44873U 19092A   26195.93321917  .00000150  00000+0  25400-4 0  9995
2 44873  97.8896  19.1349 0001500  90.0467 270.0918 14.82156618355589
CSG-2                   
1 51444U 22008A   26195.96694444  .00000175  00000+0  28489-4 0  9996
2 51444  97.8885  19.1624 0001542  84.5128 275.6261 14.82150749240701
CSG-3                   
1 67304U 26001A   26194.52815792  .00000135  00000+0  23485-4 0  9994
2 67304  97.8894  17.7492 0001518  93.3222 266.8165 14.82151371 28369
